{"type": "FeatureCollection", "features": [ {"type": "Feature", "properties": {"norad_id": 60453, "name": "LEGION 4", "group": "resource", "lat": 40.2482118555191, "lon": -148.78584955507264, "alt_km": 518.794779709413, "timestamp": "2025-12-03T22:42:32.314596+00:00", "meta": {"OBJECT_NAME": "LEGION 4", "OBJECT_ID": "2024-146B", "EPOCH": "2025-12-03T11:08:06.232128", "MEAN_MOTION": 15.15661797, "ECCENTRICITY": 0.0009915, "INCLINATION": 45.0381, "RA_OF_ASC_NODE": 91.5747, "ARG_OF_PERICENTER": 262.7987, "MEAN_ANOMALY": 97.1765, "EPHEMERIS_TYPE": 0, "CLASSIFICATION_TYPE": "U", "NORAD_CAT_ID": 60453, "ELEMENT_SET_NO": 999, "REV_AT_EPOCH": 7117, "BSTAR": 0.00046001, "MEAN_MOTION_DOT": 8.655e-05, "MEAN_MOTION_DDOT": 0}, "tle": {"line1": "1 60453U 24146B   25337.46396102  .00008655  00000+0  46001-3 0  9993", "line2": "2 60453  45.0381  91.5747 0009915 262.7987  97.1765 15.15661797 71178"}}, "geometry": {"type": "Point", "coordinates": [-148.78584955507264, 40.2482118555191]}}, {"type": "Feature", "properties": {"norad_id": 60989, "name": "SENTINEL-2C", "group": "resource", "lat": 80.3316500072842, "lon": -67.28591827769488, "alt_km": 780.7363301646874, "timestamp": "2025-12-03T22:42:32.314608+00:00", "meta": {"OBJECT_NAME": "SENTINEL-2C", "OBJECT_ID": "2024-157A", "EPOCH": "2025-12-03T10:31:15.128256", "MEAN_MOTION": 14.30824108, "ECCENTRICITY": 0.0001147, "INCLINATION": 98.5614, "RA_OF_ASC_NODE": 50.0556, "ARG_OF_PERICENTER": 101.9489, "MEAN_ANOMALY": 258.1822, "EPHEMERIS_TYPE": 0, "CLASSIFICATION_TYPE": "U", "NORAD_CAT_ID": 60989, "ELEMENT_SET_NO": 999, "REV_AT_EPOCH": 6499, "BSTAR": 0.00011032, "MEAN_MOTION_DOT": 2.46e-06, "MEAN_MOTION_DDOT": 0}, "tle": {"line1": "1 60989U 24157A   25337.43836954  .00000246  00000+0  11032-3 0  9994", "line2": "2 60989  98.5614  50.0556 0001147 101.9489 258.1822 14.30824108 64990"}}, "geometry": {"type": "Point", "coordinates": [-67.28591827769488, 80.3316500072842]}}, {"type": "Feature", "properties": {"norad_id": 61735, "name": "IONOSFERA-M 1", "group": "resource", "lat": -74.32377056692737, "lon": -5.3832369772976, "alt_km": 824.2034849735, "timestamp": "2025-12-03T22:42:32.314618+00:00", "meta": {"OBJECT_NAME": "IONOSFERA-M 1", "OBJECT_ID": "2024-199A", "EPOCH": "2025-12-03T13:03:56.236032", "MEAN_MOTION": 14.22710704, "ECCENTRICITY": 0.0001366, "INCLINATION": 98.7409, "RA_OF_ASC_NODE": 207.4627, "ARG_OF_PERICENTER": 34.6116, "MEAN_ANOMALY": 325.5151, "EPHEMERIS_TYPE": 0, "CLASSIFICATION_TYPE": "U", "NORAD_CAT_ID": 61735, "ELEMENT_SET_NO": 999, "REV_AT_EPOCH": 9988, "BSTAR": 7.5658e-05, "MEAN_MOTION_DOT": 1.25e-06, "MEAN_MOTION_DDOT": 0}, "tle": {"line1": "1 61735U 24199A   25337.54440088  .00000125  00000+0  75658-4 0  9992", "line2": "2 61735  98.7409 207.4627 0001366  34.6116 325.5151 14.22710704 99880"}}, "geometry": {"type": "Point", "coordinates": [-5.3832369772976, -74.32377056692737]}}, {"type": "Feature", "properties": {"norad_id": 61736, "name": "IONOSFERA-M 2", "group": "resource", "lat": 76.3555996206376, "lon": 168.4445048363813, "alt_km": 808.200752675184, "timestamp": "2025-12-03T22:42:32.314627+00:00", "meta": {"OBJECT_NAME": "IONOSFERA-M 2", "OBJECT_ID": "2024-199B", "EPOCH": "2025-12-03T12:12:34.394688", "MEAN_MOTION": 14.22712763, "ECCENTRICITY": 0.0001383, "INCLINATION": 98.7407, "RA_OF_ASC_NODE": 207.3399, "ARG_OF_PERICENTER": 121.6334, "MEAN_ANOMALY": 238.4979, "EPHEMERIS_TYPE": 0, "CLASSIFICATION_TYPE": "U", "NORAD_CAT_ID": 61736, "ELEMENT_SET_NO": 999, "REV_AT_EPOCH": 10300, "BSTAR": 7.6335e-05, "MEAN_MOTION_DOT": 1.27e-06, "MEAN_MOTION_DDOT": 0}, "tle": {"line1": "1 61736U 24199B   25337.50873142  .00000127  00000+0  76335-4 0  9995", "line2": "2 61736  98.7407 207.3399 0001383 121.6334 238.4979 14.22712763103009"}}, "geometry": {"type": "Point", "coordinates": [168.4445048363813, 76.3555996206376]}}, {"type": "Feature", "properties": {"norad_id": 63772, "name": "BIOMASS", "group": "resource", "lat": -63.5793924750105, "lon": 179.67624509990702, "alt_km": 676.8303637930421, "timestamp": "2025-12-03T22:42:32.314637+00:00", "meta": {"OBJECT_NAME": "BIOMASS", "OBJECT_ID": "2025-090A", "EPOCH": "2025-12-03T11:32:56.497344", "MEAN_MOTION": 14.67534999, "ECCENTRICITY": 0.0001221, "INCLINATION": 98.0704, "RA_OF_ASC_NODE": 162.625, "ARG_OF_PERICENTER": 79.869, "MEAN_ANOMALY": 280.2652, "EPHEMERIS_TYPE": 0, "CLASSIFICATION_TYPE": "U", "NORAD_CAT_ID": 63772, "ELEMENT_SET_NO": 999, "REV_AT_EPOCH": 3198, "BSTAR": 0.00037434, "MEAN_MOTION_DOT": 2.075e-05, "MEAN_MOTION_DDOT": 0}, "tle": {"line1": "1 63772U 25090A   25337.48120946  .00002075  00000+0  37434-3 0  9992", "line2": "2 63772  98.0704 162.6250 0001221  79.8690 280.2652 14.67534999 31985"}}, "geometry": {"type": "Point", "coordinates": [179.67624509990702, -63.5793924750105]}}, {"type": "Feature", "properties": {"norad_id": 64694, "name": "GOSAT-GW (IBUKI GW)", "group": "resource", "lat": 35.35405611942161, "lon": 99.3730846531706, "alt_km": 666.148490434266, "timestamp": "2025-12-03T22:42:32.314646+00:00", "meta": {"OBJECT_NAME": "GOSAT-GW (IBUKI GW)", "OBJECT_ID": "2025-141A", "EPOCH": "2025-11-30T05:41:32.267328", "MEAN_MOTION": 14.67567435, "ECCENTRICITY": 0.00014369, "INCLINATION": 98.0401, "RA_OF_ASC_NODE": 269.9775, "ARG_OF_PERICENTER": 82.921, "MEAN_ANOMALY": 277.2158, "EPHEMERIS_TYPE": 0, "CLASSIFICATION_TYPE": "U", "NORAD_CAT_ID": 64694, "ELEMENT_SET_NO": 999, "REV_AT_EPOCH": 2266, "BSTAR": 0.00019762357, "MEAN_MOTION_DOT": 1.074e-05, "MEAN_MOTION_DDOT": 0}, "tle": {"line1": "1 64694U 25141A   25334.23717902  .00001074  00000+0  19762-3 0  9999", "line2": "2 64694  98.0401 269.9775 0001436  82.9210 277.2158 14.67567435 22660"}}, "geometry": {"type": "Point", "coordinates": [99.3730846531706, 35.35405611942161]}}, {"type": "Feature", "properties": {"norad_id": 64876, "name": "IONOSFERA-M 3", "group": "resource", "lat": 15.468074440949172, "lon": 122.45532627142796, "alt_km": 821.2370359437782, "timestamp": "2025-12-03T22:42:32.314656+00:00", "meta": {"OBJECT_NAME": "IONOSFERA-M 3", "OBJECT_ID": "2025-155A", "EPOCH": "2025-12-03T11:48:09.730656", "MEAN_MOTION": 14.2143721, "ECCENTRICITY": 0.0002393, "INCLINATION": 98.577, "RA_OF_ASC_NODE": 299.6203, "ARG_OF_PERICENTER": 74.4493, "MEAN_ANOMALY": 285.6949, "EPHEMERIS_TYPE": 0, "CLASSIFICATION_TYPE": "U", "NORAD_CAT_ID": 64876, "ELEMENT_SET_NO": 999, "REV_AT_EPOCH": 1860, "BSTAR": 7.2426e-05, "MEAN_MOTION_DOT": 1.16e-06, "MEAN_MOTION_DDOT": 0}, "tle": {"line1": "1 64876U 25155A   25337.49177929  .00000116  00000+0  72426-4 0  9999", "line2": "2 64876  98.5770 299.6203 0002393  74.4493 285.6949 14.21437210 18601"}}, "geometry": {"type": "Point", "coordinates": [122.45532627142796, 15.468074440949172]}}, {"type": "Feature", "properties": {"norad_id": 64877, "name": "IONOSFERA-M 4", "group": "resource", "lat": -15.124507650310253, "lon": -57.680886862171945, "alt_km": 825.0894383485274, "timestamp": "2025-12-03T22:42:32.314665+00:00", "meta": {"OBJECT_NAME": "IONOSFERA-M 4", "OBJECT_ID": "2025-155B", "EPOCH": "2025-12-03T12:38:40.026624", "MEAN_MOTION": 14.21438323, "ECCENTRICITY": 0.0001742, "INCLINATION": 98.5768, "RA_OF_ASC_NODE": 299.574, "ARG_OF_PERICENTER": 72.9475, "MEAN_ANOMALY": 287.1894, "EPHEMERIS_TYPE": 0, "CLASSIFICATION_TYPE": "U", "NORAD_CAT_ID": 64877, "ELEMENT_SET_NO": 999, "REV_AT_EPOCH": 1860, "BSTAR": 7.7585e-05, "MEAN_MOTION_DOT": 1.27e-06, "MEAN_MOTION_DDOT": 0}, "tle": {"line1": "1 64877U 25155B   25337.52685216  .00000127  00000+0  77585-4 0  9990", "line2": "2 64877  98.5768 299.5740 0001742  72.9475 287.1894 14.21438323 18606"}}, "geometry": {"type": "Point", "coordinates": [-57.680886862171945, -15.124507650310253]}}, {"type": "Feature", "properties": {"norad_id": 64899, "name": "MICROCARB", "group": "resource", "lat": -19.86506163059633, "lon": 56.34624689939078, "alt_km": 671.1412027641527, "timestamp": "2025-12-03T22:42:32.314673+00:00", "meta": {"OBJECT_NAME": "MICROCARB", "OBJECT_ID": "2025-156A", "EPOCH": "2025-12-03T04:51:17.943264", "MEAN_MOTION": 14.72030926, "ECCENTRICITY": 0.0016515, "INCLINATION": 98.0035, "RA_OF_ASC_NODE": 52.7004, "ARG_OF_PERICENTER": 174.3539, "MEAN_ANOMALY": 185.7857, "EPHEMERIS_TYPE": 0, "CLASSIFICATION_TYPE": "U", "NORAD_CAT_ID": 64899, "ELEMENT_SET_NO": 999, "REV_AT_EPOCH": 1913, "BSTAR": 0.00017718925, "MEAN_MOTION_DOT": 1.065e-05, "MEAN_MOTION_DDOT": 0}, "tle": {"line1": "1 64899U 25156A   25337.20229101  .00001065  00000+0  17719-3 0  9991", "line2": "2 64899  98.0035  52.7004 0016515 174.3539 185.7857 14.72030926 19130"}}, "geometry": {"type": "Point", "coordinates": [56.34624689939078, -19.86506163059633]}}, {"type": "Feature", "properties": {"norad_id": 64900, "name": "CO3D 3", "group": "resource", "lat": 17.126748528909634, "lon": -124.15453106840239, "alt_km": 441.7389239349204, "timestamp": "2025-12-03T22:42:32.314683+00:00", "meta": {"OBJECT_NAME": "CO3D 3", "OBJECT_ID": "2025-156B", "EPOCH": "2025-11-29T13:08:11.122944", "MEAN_MOTION": 15.11495615, "ECCENTRICITY": 0.01368669, "INCLINATION": 97.6723, "RA_OF_ASC_NODE": 49.0485, "ARG_OF_PERICENTER": 160.1625, "MEAN_ANOMALY": 200.5002, "EPHEMERIS_TYPE": 0, "CLASSIFICATION_TYPE": "U", "NORAD_CAT_ID": 64900, "ELEMENT_SET_NO": 999, "REV_AT_EPOCH": 1920, "BSTAR": 0.00046350794, "MEAN_MOTION_DOT": 9.779e-05, "MEAN_MOTION_DDOT": 0}, "tle": {"line1": "1 64900U 25156B   25333.54735096  .00009779  00000+0  46351-3 0  9996", "line2": "2 64900  97.6723  49.0485 0136866 160.1625 200.5002 15.11495615 19205"}}, "geometry": {"type": "Point", "coordinates": [-124.15453106840239, 17.126748528909634]}}]}